[{"OBJECT_NAME":"MOLNIYA 1-56","OBJECT_ID":"1983-019A","EPOCH":"2026-03-01T03:19:34.029120","MEAN_MOTION":2.00089247,"ECCENTRICITY":0.7003274,"INCLINATION":62.5609,"RA_OF_ASC_NODE":183.2725,"ARG_OF_PERICENTER":273.981,"MEAN_ANOMALY":15.514,"EPHEMERIS_TYPE":0,"CLASSIFICATION_TYPE":"U","NORAD_CAT_ID":13890,"ELEMENT_SET_NO":999,"REV_AT_EPOCH":31365,"BSTAR":0,"MEAN_MOTION_DOT":-5.6e-7,"MEAN_MOTION_DDOT":0},{"OBJECT_NAME":"SL-6 R/B(2)","OBJECT_ID":"1983-019D","EPOCH":"2026-03-02T07:37:00.742944","MEAN_MOTION":1.97352222,"ECCENTRICITY":0.7106581,"INCLINATION":62.6918,"RA_OF_ASC_NODE":215.337,"ARG_OF_PERICENTER":276.9211,"MEAN_ANOMALY":13.7688,"EPHEMERIS_TYPE":0,"CLASSIFICATION_TYPE":"U","NORAD_CAT_ID":13897,"ELEMENT_SET_NO":999,"REV_AT_EPOCH":30852,"BSTAR":0,"MEAN_MOTION_DOT":-9.58e-6,"MEAN_MOTION_DDOT":0},{"OBJECT_NAME":"ASTRON","OBJECT_ID":"1983-020A","EPOCH":"2026-03-04T23:20:35.290752","MEAN_MOTION":0.24300133,"ECCENTRICITY":0.6499,"INCLINATION":78.509,"RA_OF_ASC_NODE":58.5776,"ARG_OF_PERICENTER":50.0096,"MEAN_ANOMALY":0.3364,"EPHEMERIS_TYPE":0,"CLASSIFICATION_TYPE":"U","NORAD_CAT_ID":13901,"ELEMENT_SET_NO":999,"REV_AT_EPOCH":1089,"BSTAR":0,"MEAN_MOTION_DOT":-6.3e-7,"MEAN_MOTION_DDOT":0},{"OBJECT_NAME":"RADUGA 12","OBJECT_ID":"1983-028A","EPOCH":"2026-03-03T18:22:05.252448","MEAN_MOTION":1.00249279,"ECCENTRICITY":0.0002984,"INCLINATION":8.4137,"RA_OF_ASC_NODE":307.0185,"ARG_OF_PERICENTER":357.3017,"MEAN_ANOMALY":205.4732,"EPHEMERIS_TYPE":0,"CLASSIFICATION_TYPE":"U","NORAD_CAT_ID":13974,"ELEMENT_SET_NO":999,"REV_AT_EPOCH":16832,"BSTAR":0,"MEAN_MOTION_DOT":-8.4e-7,"MEAN_MOTION_DDOT":0},{"OBJECT_NAME":"SL-12 R/B(2)","OBJECT_ID":"1983-028F","EPOCH":"2026-03-03T18:20:29.686272","MEAN_MOTION":1.00033919,"ECCENTRICITY":0.0023107,"INCLINATION":8.4434,"RA_OF_ASC_NODE":307.0821,"ARG_OF_PERICENTER":223.0993,"MEAN_ANOMALY":324.5574,"EPHEMERIS_TYPE":0,"CLASSIFICATION_TYPE":"U","NORAD_CAT_ID":13983,"ELEMENT_SET_NO":999,"REV_AT_EPOCH":15675,"BSTAR":0,"MEAN_MOTION_DOT":7.0e-7,"MEAN_MOTION_DDOT":0},{"OBJECT_NAME":"SATCOM 1R","OBJECT_ID":"1983-030A","EPOCH":"2026-03-02T16:21:03.150144","MEAN_MOTION":0.99850506,"ECCENTRICITY":0.00039987,"INCLINATION":13.299,"RA_OF_ASC_NODE":339.2756,"ARG_OF_PERICENTER":111.6527,"MEAN_ANOMALY":64.961,"EPHEMERIS_TYPE":0,"CLASSIFICATION_TYPE":"U","NORAD_CAT_ID":13984,"ELEMENT_SET_NO":999,"REV_AT_EPOCH":12941,"BSTAR":0,"MEAN_MOTION_DOT":-3.21e-6,"MEAN_MOTION_DDOT":0},{"OBJECT_NAME":"COSMOS 1191 DEB","OBJECT_ID":"1980-057G","EPOCH":"2026-03-01T02:13:17.101056","MEAN_MOTION":2.01286741,"ECCENTRICITY":0.7174837,"INCLINATION":63.5971,"RA_OF_ASC_NODE":325.4314,"ARG_OF_PERICENTER":25.409,"MEAN_ANOMALY":356.9271,"EPHEMERIS_TYPE":0,"CLASSIFICATION_TYPE":"U","NORAD_CAT_ID":13999,"ELEMENT_SET_NO":999,"REV_AT_EPOCH":32787,"BSTAR":0,"MEAN_MOTION_DOT":-8.79e-6,"MEAN_MOTION_DDOT":0},{"OBJECT_NAME":"GOES 6","OBJECT_ID":"1983-041A","EPOCH":"2026-03-03T07:54:34.576704","MEAN_MOTION":1.00217666,"ECCENTRICITY":0.00023608,"INCLINATION":10.3592,"RA_OF_ASC_NODE":321.907,"ARG_OF_PERICENTER":306.4375,"MEAN_ANOMALY":262.1209,"EPHEMERIS_TYPE":0,"CLASSIFICATION_TYPE":"U","NORAD_CAT_ID":14050,"ELEMENT_SET_NO":999,"REV_AT_EPOCH":21495,"BSTAR":0,"MEAN_MOTION_DOT":-8.2e-7,"MEAN_MOTION_DDOT":0},{"OBJECT_NAME":"GOES 6 AKM","OBJECT_ID":"1983-041C","EPOCH":"2026-03-03T07:21:27.992736","MEAN_MOTION":0.84336794,"ECCENTRICITY":0.1674824,"INCLINATION":15.9369,"RA_OF_ASC_NODE":321.8939,"ARG_OF_PERICENTER":116.8827,"MEAN_ANOMALY":68.5274,"EPHEMERIS_TYPE":0,"CLASSIFICATION_TYPE":"U","NORAD_CAT_ID":14069,"ELEMENT_SET_NO":999,"REV_AT_EPOCH":3893,"BSTAR":0,"MEAN_MOTION_DOT":-2.11e-6,"MEAN_MOTION_DDOT":0},{"OBJECT_NAME":"INTELSAT 506","OBJECT_ID":"1983-047A","EPOCH":"2026-03-03T03:35:20.275872","MEAN_MOTION":0.99161697,"ECCENTRICITY":0.00411433,"INCLINATION":12.5741,"RA_OF_ASC_NODE":334.3381,"ARG_OF_PERICENTER":350.6797,"MEAN_ANOMALY":204.3205,"EPHEMERIS_TYPE":0,"CLASSIFICATION_TYPE":"U","NORAD_CAT_ID":14077,"ELEMENT_SET_NO":999,"REV_AT_EPOCH":12303,"BSTAR":0,"MEAN_MOTION_DOT":-2.58e-6,"MEAN_MOTION_DDOT":0},{"OBJECT_NAME":"SL-12 R/B(2)","OBJECT_ID":"1983-016F","EPOCH":"2026-03-02T20:56:20.698656","MEAN_MOTION":1.01095964,"ECCENTRICITY":0.001681,"INCLINATION":6.8365,"RA_OF_ASC_NODE":297.5972,"ARG_OF_PERICENTER":326.6756,"MEAN_ANOMALY":206.0198,"EPHEMERIS_TYPE":0,"CLASSIFICATION_TYPE":"U","NORAD_CAT_ID":14086,"ELEMENT_SET_NO":999,"REV_AT_EPOCH":12189,"BSTAR":0,"MEAN_MOTION_DOT":5.4e-7,"MEAN_MOTION_DDOT":0},{"OBJECT_NAME":"SL-12 R/B(2)","OBJECT_ID":"1982-044F","EPOCH":"2026-03-03T08:55:04.632960","MEAN_MOTION":1.00260876,"ECCENTRICITY":0.001417,"INCLINATION":8.4279,"RA_OF_ASC_NODE":297.5605,"ARG_OF_PERICENTER":198.0523,"MEAN_ANOMALY":154.3634,"EPHEMERIS_TYPE":0,"CLASSIFICATION_TYPE":"U","NORAD_CAT_ID":14114,"ELEMENT_SET_NO":999,"REV_AT_EPOCH":4627,"BSTAR":0,"MEAN_MOTION_DOT":-6.8e-7,"MEAN_MOTION_DDOT":0},{"OBJECT_NAME":"SL-12 R/B(2)","OBJECT_ID":"1982-009F","EPOCH":"2026-03-03T16:52:44.660352","MEAN_MOTION":1.00985974,"ECCENTRICITY":0.0036594,"INCLINATION":6.698,"RA_OF_ASC_NODE":294.7031,"ARG_OF_PERICENTER":196.8857,"MEAN_ANOMALY":152.2374,"EPHEMERIS_TYPE":0,"CLASSIFICATION_TYPE":"U","NORAD_CAT_ID":14117,"ELEMENT_SET_NO":999,"REV_AT_EPOCH":12236,"BSTAR":0,"MEAN_MOTION_DOT":-5.2e-7,"MEAN_MOTION_DDOT":0},{"OBJECT_NAME":"NAHUEL I2 (ANIK C2)","OBJECT_ID":"1983-059B","EPOCH":"2026-03-03T00:02:45.012768","MEAN_MOTION":0.99126236,"ECCENTRICITY":0.0034853,"INCLINATION":13.0109,"RA_OF_ASC_NODE":336.9569,"ARG_OF_PERICENTER":116.5775,"MEAN_ANOMALY":243.7958,"EPHEMERIS_TYPE":0,"CLASSIFICATION_TYPE":"U","NORAD_CAT_ID":14133,"ELEMENT_SET_NO":999,"REV_AT_EPOCH":4509,"BSTAR":0,"MEAN_MOTION_DOT":-2.04e-6,"MEAN_MOTION_DDOT":0},{"OBJECT_NAME":"PALAPA B1","OBJECT_ID":"1983-059C","EPOCH":"2026-03-02T21:09:19.454688","MEAN_MOTION":1.00155077,"ECCENTRICITY":0.0001694,"INCLINATION":11.721,"RA_OF_ASC_NODE":330.2067,"ARG_OF_PERICENTER":47.535,"MEAN_ANOMALY":141.3958,"EPHEMERIS_TYPE":0,"CLASSIFICATION_TYPE":"U","NORAD_CAT_ID":14134,"ELEMENT_SET_NO":999,"REV_AT_EPOCH":11972,"BSTAR":0,"MEAN_MOTION_DOT":1.18e-6,"MEAN_MOTION_DDOT":0},{"OBJECT_NAME":"GALAXY 1 (G-1)","OBJECT_ID":"1983-065A","EPOCH":"2026-03-01T03:38:38.659776","MEAN_MOTION":1.00145013,"ECCENTRICITY":0.0004143,"INCLINATION":13.6738,"RA_OF_ASC_NODE":342.4689,"ARG_OF_PERICENTER":310.2198,"MEAN_ANOMALY":250.8979,"EPHEMERIS_TYPE":0,"CLASSIFICATION_TYPE":"U","NORAD_CAT_ID":14158,"ELEMENT_SET_NO":999,"REV_AT_EPOCH":4554,"BSTAR":0,"MEAN_MOTION_DOT":-2.6e-6,"MEAN_MOTION_DDOT":0},{"OBJECT_NAME":"SL-12 R/B(2)","OBJECT_ID":"1981-102F","EPOCH":"2026-03-02T21:12:06.669792","MEAN_MOTION":1.00232211,"ECCENTRICITY":0.0008246,"INCLINATION":6.8554,"RA_OF_ASC_NODE":295.2732,"ARG_OF_PERICENTER":230.3318,"MEAN_ANOMALY":129.5167,"EPHEMERIS_TYPE":0,"CLASSIFICATION_TYPE":"U","NORAD_CAT_ID":14195,"ELEMENT_SET_NO":999,"REV_AT_EPOCH":12193,"BSTAR":0,"MEAN_MOTION_DOT":-4.0e-8,"MEAN_MOTION_DDOT":0},{"OBJECT_NAME":"ARABSAT-1DR (TELSTAR 3A)","OBJECT_ID":"1983-077A","EPOCH":"2026-03-02T19:30:03.417984","MEAN_MOTION":0.99520465,"ECCENTRICITY":0.0022603,"INCLINATION":13.8593,"RA_OF_ASC_NODE":342.7513,"ARG_OF_PERICENTER":171.4523,"MEAN_ANOMALY":188.6023,"EPHEMERIS_TYPE":0,"CLASSIFICATION_TYPE":"U","NORAD_CAT_ID":14234,"ELEMENT_SET_NO":999,"REV_AT_EPOCH":4528,"BSTAR":0,"MEAN_MOTION_DOT":1.0e-8,"MEAN_MOTION_DDOT":0},{"OBJECT_NAME":"INSAT-1B","OBJECT_ID":"1983-089B","EPOCH":"2026-03-03T16:15:55.688832","MEAN_MOTION":1.00181123,"ECCENTRICITY":0.0010184,"INCLINATION":11.311,"RA_OF_ASC_NODE":327.7123,"ARG_OF_PERICENTER":261.8104,"MEAN_ANOMALY":277.5447,"EPHEMERIS_TYPE":0,"CLASSIFICATION_TYPE":"U","NORAD_CAT_ID":14318,"ELEMENT_SET_NO":999,"REV_AT_EPOCH":12415,"BSTAR":0,"MEAN_MOTION_DOT":-3.23e-6,"MEAN_MOTION_DDOT":0},{"OBJECT_NAME":"SATCOM 2R","OBJECT_ID":"1983-094A","EPOCH":"2026-03-02T15:21:24.298848","MEAN_MOTION":0.99414534,"ECCENTRICITY":0.0014046,"INCLINATION":14.37,"RA_OF_ASC_NODE":346.7216,"ARG_OF_PERICENTER":60.1961,"MEAN_ANOMALY":134.6006,"EPHEMERIS_TYPE":0,"CLASSIFICATION_TYPE":"U","NORAD_CAT_ID":14328,"ELEMENT_SET_NO":999,"REV_AT_EPOCH":15449,"BSTAR":0,"MEAN_MOTION_DOT":-3.21e-6,"MEAN_MOTION_DDOT":0},{"OBJECT_NAME":"GALAXY 2 (G-2)","OBJECT_ID":"1983-098A","EPOCH":"2026-03-03T10:12:38.547360","MEAN_MOTION":1.00167029,"ECCENTRICITY":0.00028821,"INCLINATION":13.6865,"RA_OF_ASC_NODE":342.7668,"ARG_OF_PERICENTER":66.5288,"MEAN_ANOMALY":123.1881,"EPHEMERIS_TYPE":0,"CLASSIFICATION_TYPE":"U","NORAD_CAT_ID":14365,"ELEMENT_SET_NO":999,"REV_AT_EPOCH":13117,"BSTAR":0,"MEAN_MOTION_DOT":8.2e-7,"MEAN_MOTION_DDOT":0},{"OBJECT_NAME":"EKRAN 11","OBJECT_ID":"1983-100A","EPOCH":"2026-03-03T03:21:35.141184","MEAN_MOTION":1.00314376,"ECCENTRICITY":0.0004634,"INCLINATION":7.9935,"RA_OF_ASC_NODE":305.2543,"ARG_OF_PERICENTER":348.5848,"MEAN_ANOMALY":11.363,"EPHEMERIS_TYPE":0,"CLASSIFICATION_TYPE":"U","NORAD_CAT_ID":14377,"ELEMENT_SET_NO":999,"REV_AT_EPOCH":4631,"BSTAR":0,"MEAN_MOTION_DOT":-2.92e-6,"MEAN_MOTION_DDOT":0},{"OBJECT_NAME":"SL-12 R/B(2)","OBJECT_ID":"1983-100F","EPOCH":"2026-03-03T19:15:45.953280","MEAN_MOTION":1.01048421,"ECCENTRICITY":0.0018309,"INCLINATION":7.4685,"RA_OF_ASC_NODE":303.2951,"ARG_OF_PERICENTER":156.0032,"MEAN_ANOMALY":1.8603,"EPHEMERIS_TYPE":0,"CLASSIFICATION_TYPE":"U","NORAD_CAT_ID":14394,"ELEMENT_SET_NO":999,"REV_AT_EPOCH":15595,"BSTAR":0,"MEAN_MOTION_DOT":1.05e-6,"MEAN_MOTION_DDOT":0},{"OBJECT_NAME":"INTELSAT 507","OBJECT_ID":"1983-105A","EPOCH":"2026-03-03T06:45:47.023200","MEAN_MOTION":0.99689667,"ECCENTRICITY":0.00032218,"INCLINATION":12.0964,"RA_OF_ASC_NODE":331.8468,"ARG_OF_PERICENTER":47.5163,"MEAN_ANOMALY":145.3686,"EPHEMERIS_TYPE":0,"CLASSIFICATION_TYPE":"U","NORAD_CAT_ID":14421,"ELEMENT_SET_NO":999,"REV_AT_EPOCH":13617,"BSTAR":0,"MEAN_MOTION_DOT":-8.1e-7,"MEAN_MOTION_DDOT":0}]
